{"0": {"report_timestamp": "10/28/2022 05:26:30", "report": "metar-taf", "encodedreport": "SPECI CYXX 280514Z 20007KT 5SM RA SCT035 BKN047 OVC060 11/10 A2991 RMK SC3NS4NS", "location": "CYXX - ABBOTSFORD/BC", "date - time": ["28 OCTOBER 2022 - 0514 UTC"], "wind": ["200 TRUE @ 7 KNOTS"], "visibility": ["5 STAT. MILES"], "weather": ["MODERATE RAIN"], "cloudiness": ["SCATTERED CLOUDS (3/8 - 4/8) 3500 FT", "BROKEN CLOUDS (5/8 - 7/8) 4700 FT", "OVERCAST 6000 FT"], "temp / dewpoint": ["11 C /", "10 C"], "altimeter": ["29.91 IN HG"], "datetime": "2022-10-27 22:14 PDT"}, "1": {"report_timestamp": "10/28/2022 05:26:30", "report": "metar-taf", "encodedreport": "METAR CYXX 280500Z 16005KT 5SM -RA SCT038 BKN054 OVC066 10/10 A2989 RMK SC3SC3N", "location": "CYXX - ABBOTSFORD/BC", "date - time": ["28 OCTOBER 2022 - 0500 UTC"], "wind": ["160 TRUE @ 5 KNOTS"], "visibility": ["5 STAT. MILES"], "weather": ["LIGHT RAIN"], "cloudiness": ["SCATTERED CLOUDS (3/8 - 4/8) 3800 FT", "BROKEN CLOUDS (5/8 - 7/8) 5400 FT", "OVERCAST 6600 FT"], "temp / dewpoint": ["10 C /", "10 C"], "altimeter": ["29.89 IN HG"], "datetime": "2022-10-27 22:00 PDT"}, "2": {"report_timestamp": "10/28/2022 05:26:30", "report": "metar-taf", "encodedreport": "METAR CYXX 280400Z 19006KT 5SM RA BKN032 BKN052 OVC056 11/10 A2990 RMK SC5NS2NS", "location": "CYXX - ABBOTSFORD/BC", "date - time": ["28 OCTOBER 2022 - 0400 UTC"], "wind": ["190 TRUE @ 6 KNOTS"], "visibility": ["5 STAT. MILES"], "weather": ["MODERATE RAIN"], "cloudiness": ["BROKEN CLOUDS (5/8 - 7/8) 3200 FT", "BROKEN CLOUDS (5/8 - 7/8) 5200 FT", "OVERCAST 5600 FT"], "temp / dewpoint": ["11 C /", "10 C"], "altimeter": ["29.90 IN HG"], "datetime": "2022-10-27 21:00 PDT"}, "3": {"report_timestamp": "10/28/2022 05:26:30", "report": "metar-taf", "encodedreport": "METAR CYXX 280300Z 18009KT 4SM RA SCT038 BKN050 OVC059 11/09 A2989 RMK SC3NS4NS", "location": "CYXX - ABBOTSFORD/BC", "date - time": ["28 OCTOBER 2022 - 0300 UTC"], "wind": ["180 TRUE @ 9 KNOTS"], "visibility": ["4 STAT. MILES"], "weather": ["MODERATE RAIN"], "cloudiness": ["SCATTERED CLOUDS (3/8 - 4/8) 3800 FT", "BROKEN CLOUDS (5/8 - 7/8) 5000 FT", "OVERCAST 5900 FT"], "temp / dewpoint": ["11 C /", "9 C"], "altimeter": ["29.89 IN HG"], "datetime": "2022-10-27 20:00 PDT"}, "4": {"report_timestamp": "10/28/2022 05:26:30", "report": "metar-taf", "encodedreport": "TAF CYXX 272340Z 2800/2824 19022G32KT P6SM -RA SCT020 OVC050 TEMPO", "location": "CYXX - ABBOTSFORD/BC"}}