{"0": {"report_timestamp": "10/20/2022 05:03:30", "report": "metar-taf", "encodedreport": "METAR CYVR 200400Z VRB02KT 15SM BKN220 11/11 A3022 RMK CI5 VIS N LWR SLP235=", "location": "CYVR - VANCOUVER INTL/BC", "date - time": ["20 OCTOBER 2022 - 0400 UTC"], "wind": ["VRB @ 2 KNOTS"], "visibility": ["15 STAT. MILES"], "cloudiness": ["BROKEN CLOUDS (5/8 - 7/8) 22000 FT"], "temp / dewpoint": ["11 C /", "11 C"], "altimeter": ["30.22 IN HG"], "datetime": "2022-10-19 21:00 PDT"}, "1": {"report_timestamp": "10/20/2022 05:03:30", "report": "metar-taf", "encodedreport": "METAR CYVR 200300Z 00000KT 15SM PRFG MIFG FEW120 SCT220 11/11 A3022 RMK AC1CI3", "location": "CYVR - VANCOUVER INTL/BC", "date - time": ["20 OCTOBER 2022 - 0300 UTC"], "wind": ["CALM"], "visibility": ["15 STAT. MILES"], "weather": ["PARTIAL COVERAGE OF FOG", "SHALLOW FOG"], "cloudiness": ["FEW CLOUDS (1/8 - 2/8) 12000 FT", "SCATTERED CLOUDS (3/8 - 4/8) 22000 FT"], "temp / dewpoint": ["11 C /", "11 C"], "altimeter": ["30.22 IN HG"], "datetime": "2022-10-19 20:00 PDT"}, "2": {"report_timestamp": "10/20/2022 05:03:30", "report": "metar-taf", "encodedreport": "SPECI CYVR 200229Z 00000KT 15SM R26L/2600VP6000FT/U PRFG FEW120 BKN220 11/11 A3", "location": "CYVR - VANCOUVER INTL/BC", "date - time": ["20 OCTOBER 2022 - 0229 UTC"], "wind": ["CALM"], "visibility": ["15 STAT. MILES"], "weather": ["PARTIAL COVERAGE OF FOG"], "cloudiness": ["FEW CLOUDS (1/8 - 2/8) 12000 FT", "BROKEN CLOUDS (5/8 - 7/8) 22000 FT"], "temp / dewpoint": ["11 C /", "11 C"], "altimeter": ["30.20 IN HG"], "datetime": "2022-10-19 19:29 PDT"}, "3": {"report_timestamp": "10/20/2022 05:03:30", "report": "metar-taf", "encodedreport": "METAR CYVR 200200Z VRB02KT 15SM MIFG FEW100 BKN220 10/10 A3024 RMK AC1CI6 AC TR", "location": "CYVR - VANCOUVER INTL/BC", "date - time": ["20 OCTOBER 2022 - 0200 UTC"], "wind": ["VRB @ 2 KNOTS"], "visibility": ["15 STAT. MILES"], "weather": ["SHALLOW FOG"], "cloudiness": ["FEW CLOUDS (1/8 - 2/8) 10000 FT", "BROKEN CLOUDS (5/8 - 7/8) 22000 FT"], "temp / dewpoint": ["10 C /", "10 C"], "altimeter": ["30.24 IN HG"], "datetime": "2022-10-19 19:00 PDT"}, "4": {"report_timestamp": "10/20/2022 05:03:30", "report": "metar-taf", "encodedreport": "TAF CYVR 200240Z 2003/2106 28008KT P6SM FEW080 SCT220 TEMPO", "location": "CYVR - VANCOUVER INTL/BC"}}